SL-8 R/B                
1 11574U 79089B   26113.13510954  .00000166  00000+0  58053-4 0  9999
2 11574  74.0712   8.7702 0015752 173.3282 186.8088 14.42377690442519
SL-14 R/B               
1 11672U 80005B   26113.15630821  .00000414  00000+0  39221-4 0  9998
2 11672  82.5122 265.0405 0016149  20.5948 339.5919 14.90978612483113
SL-8 R/B                
1 12139U 81003B   26113.07805866  .00011176  00000+0  27726-3 0  9993
2 12139  82.9364 248.9147 0256622  24.4320 336.8822 15.12753022321380
SL-3 R/B                
1 12465U 81046B   26113.28410314  .00009261  00000+0  20784-3 0  9994
2 12465  81.2309 236.1434 0018371 221.9342 138.0496 15.43048856445300
SL-3 R/B                
1 12904U 81103B   26113.22559876  .00002952  00000+0  12850-3 0  9992
2 12904  81.1584 161.1792 0014194 133.6661 226.5750 15.21831933980007
SL-3 R/B                
1 13068U 82013B   26113.21674666  .00003171  00000+0  13530-3 0  9999
2 13068  81.1714 108.5584 0022825  33.0749 327.1905 15.22373723411129
SL-3 R/B                
1 13154U 82039B   26113.24754924  .00001113  00000+0  65873-4 0  9994
2 13154  81.1492 164.5650 0028240 172.8626 187.3008 15.10292692388368
SL-3 R/B                
1 13403U 82079B   26113.21652673  .00003766  00000+0  14734-3 0  9995
2 13403  81.1446 140.4840 0024403  18.8034 341.4095 15.25292718384480
SL-14 R/B               
1 13553U 82092B   26112.98996352  .00000323  00000+0  33376-4 0  9994
2 13553  82.5648  99.9475 0021110 150.2477 228.9877 14.86702852335519
SL-3 R/B                
1 13819U 83010B   26113.00088770  .00010103  00000+0  19413-3 0  9992
2 13819  81.1015 307.8562 0015087 251.4603 108.5004 15.47667115364793
SL-3 R/B                
1 14208U 83075B   26113.22690849  .00008199  00000+0  20991-3 0  9991
2 14208  97.6135 119.5279 0023049  72.5929 287.7833 15.39408773337002
COSMOS 1536             
1 14699U 84013A   26113.29836417  .00004690  00000+0  18933-3 0  9993
2 14699  82.5445  63.4771 0016003 121.1129 239.1681 15.24413887279410
SL-14 R/B               
1 14820U 84027B   26113.26986790  .00000320  00000+0  33692-4 0  9997
2 14820  82.5444 203.2091 0017960 180.9393 179.1793 14.86020278254250
SL-8 R/B                
1 15483U 85006B   26113.10977999  .00000147  00000+0  57311-4 0  9996
2 15483  74.0458 179.4139 0017194  82.3465 291.9627 14.37810458160414
SL-12 R/B(2)            
1 15772U 85042D   26113.16970476  .00000087  00000+0  60518-4 0  9992
2 15772  71.1099 353.7566 0033344  54.4240  94.8089 14.21994317120712
SL-14 R/B               
1 15945U 85069B   26113.10635941  .00000297  00000+0  30707-4 0  9992
2 15945  82.5278 343.1773 0019963  48.5193 311.7733 14.86475023179433
SL-16 R/B               
1 16182U 85097B   26113.20998925 -.00000161  00000+0 -56678-4 0  9999
2 16182  71.0043  46.8213 0008225 205.2559 317.5250 14.16606869 93534
