[{"OBJECT_NAME":"SL-8 R/B","OBJECT_ID":"1979-089B","EPOCH":"2026-04-23T03:14:33.464256","MEAN_MOTION":14.4237769,"ECCENTRICITY":0.0015752,"INCLINATION":74.0712,"RA_OF_ASC_NODE":8.7702,"ARG_OF_PERICENTER":173.3282,"MEAN_ANOMALY":186.8088,"EPHEMERIS_TYPE":0,"CLASSIFICATION_TYPE":"U","NORAD_CAT_ID":11574,"ELEMENT_SET_NO":999,"REV_AT_EPOCH":44251,"BSTAR":5.8052556e-5,"MEAN_MOTION_DOT":1.66e-6,"MEAN_MOTION_DDOT":0},{"OBJECT_NAME":"SL-14 R/B","OBJECT_ID":"1980-005B","EPOCH":"2026-04-23T03:45:05.029344","MEAN_MOTION":14.90978612,"ECCENTRICITY":0.00161494,"INCLINATION":82.5122,"RA_OF_ASC_NODE":265.0405,"ARG_OF_PERICENTER":20.5948,"MEAN_ANOMALY":339.5919,"EPHEMERIS_TYPE":0,"CLASSIFICATION_TYPE":"U","NORAD_CAT_ID":11672,"ELEMENT_SET_NO":999,"REV_AT_EPOCH":48311,"BSTAR":3.9220734e-5,"MEAN_MOTION_DOT":4.14e-6,"MEAN_MOTION_DDOT":0},{"OBJECT_NAME":"SL-8 R/B","OBJECT_ID":"1981-003B","EPOCH":"2026-04-23T01:52:24.268224","MEAN_MOTION":15.12753022,"ECCENTRICITY":0.02566224,"INCLINATION":82.9364,"RA_OF_ASC_NODE":248.9147,"ARG_OF_PERICENTER":24.432,"MEAN_ANOMALY":336.8822,"EPHEMERIS_TYPE":0,"CLASSIFICATION_TYPE":"U","NORAD_CAT_ID":12139,"ELEMENT_SET_NO":999,"REV_AT_EPOCH":32138,"BSTAR":0.00027725663,"MEAN_MOTION_DOT":0.00011176,"MEAN_MOTION_DDOT":0},{"OBJECT_NAME":"SL-3 R/B","OBJECT_ID":"1981-046B","EPOCH":"2026-04-23T06:49:06.511296","MEAN_MOTION":15.43048856,"ECCENTRICITY":0.00183716,"INCLINATION":81.2309,"RA_OF_ASC_NODE":236.1434,"ARG_OF_PERICENTER":221.9342,"MEAN_ANOMALY":138.0496,"EPHEMERIS_TYPE":0,"CLASSIFICATION_TYPE":"U","NORAD_CAT_ID":12465,"ELEMENT_SET_NO":999,"REV_AT_EPOCH":44530,"BSTAR":0.00020784257,"MEAN_MOTION_DOT":9.261e-5,"MEAN_MOTION_DDOT":0},{"OBJECT_NAME":"SL-3 R/B","OBJECT_ID":"1981-103B","EPOCH":"2026-04-23T05:24:51.732864","MEAN_MOTION":15.21831933,"ECCENTRICITY":0.00141945,"INCLINATION":81.1584,"RA_OF_ASC_NODE":161.1792,"ARG_OF_PERICENTER":133.6661,"MEAN_ANOMALY":226.575,"EPHEMERIS_TYPE":0,"CLASSIFICATION_TYPE":"U","NORAD_CAT_ID":12904,"ELEMENT_SET_NO":999,"REV_AT_EPOCH":98000,"BSTAR":0.000128504,"MEAN_MOTION_DOT":2.952e-5,"MEAN_MOTION_DDOT":0},{"OBJECT_NAME":"SL-3 R/B","OBJECT_ID":"1982-013B","EPOCH":"2026-04-23T05:12:06.911424","MEAN_MOTION":15.22373723,"ECCENTRICITY":0.00228252,"INCLINATION":81.1714,"RA_OF_ASC_NODE":108.5584,"ARG_OF_PERICENTER":33.0749,"MEAN_ANOMALY":327.1905,"EPHEMERIS_TYPE":0,"CLASSIFICATION_TYPE":"U","NORAD_CAT_ID":13068,"ELEMENT_SET_NO":999,"REV_AT_EPOCH":41112,"BSTAR":0.00013530164,"MEAN_MOTION_DOT":3.171e-5,"MEAN_MOTION_DDOT":0},{"OBJECT_NAME":"SL-3 R/B","OBJECT_ID":"1982-039B","EPOCH":"2026-04-23T05:56:28.254336","MEAN_MOTION":15.10292692,"ECCENTRICITY":0.00282402,"INCLINATION":81.1492,"RA_OF_ASC_NODE":164.565,"ARG_OF_PERICENTER":172.8626,"MEAN_ANOMALY":187.3008,"EPHEMERIS_TYPE":0,"CLASSIFICATION_TYPE":"U","NORAD_CAT_ID":13154,"ELEMENT_SET_NO":999,"REV_AT_EPOCH":38836,"BSTAR":6.5872789e-5,"MEAN_MOTION_DOT":1.113e-5,"MEAN_MOTION_DDOT":0},{"OBJECT_NAME":"SL-3 R/B","OBJECT_ID":"1982-079B","EPOCH":"2026-04-23T05:11:47.909472","MEAN_MOTION":15.25292718,"ECCENTRICITY":0.00244038,"INCLINATION":81.1446,"RA_OF_ASC_NODE":140.484,"ARG_OF_PERICENTER":18.8034,"MEAN_ANOMALY":341.4095,"EPHEMERIS_TYPE":0,"CLASSIFICATION_TYPE":"U","NORAD_CAT_ID":13403,"ELEMENT_SET_NO":999,"REV_AT_EPOCH":38448,"BSTAR":0.00014733821,"MEAN_MOTION_DOT":3.766e-5,"MEAN_MOTION_DDOT":0},{"OBJECT_NAME":"SL-14 R/B","OBJECT_ID":"1982-092B","EPOCH":"2026-04-22T23:45:32.848128","MEAN_MOTION":14.86702852,"ECCENTRICITY":0.00211102,"INCLINATION":82.5648,"RA_OF_ASC_NODE":99.9475,"ARG_OF_PERICENTER":150.2477,"MEAN_ANOMALY":228.9877,"EPHEMERIS_TYPE":0,"CLASSIFICATION_TYPE":"U","NORAD_CAT_ID":13553,"ELEMENT_SET_NO":999,"REV_AT_EPOCH":33551,"BSTAR":3.3376466e-5,"MEAN_MOTION_DOT":3.23e-6,"MEAN_MOTION_DDOT":0},{"OBJECT_NAME":"SL-3 R/B","OBJECT_ID":"1983-010B","EPOCH":"2026-04-23T00:01:16.697280","MEAN_MOTION":15.47667115,"ECCENTRICITY":0.00150873,"INCLINATION":81.1015,"RA_OF_ASC_NODE":307.8562,"ARG_OF_PERICENTER":251.4603,"MEAN_ANOMALY":108.5004,"EPHEMERIS_TYPE":0,"CLASSIFICATION_TYPE":"U","NORAD_CAT_ID":13819,"ELEMENT_SET_NO":999,"REV_AT_EPOCH":36479,"BSTAR":0.00019412849,"MEAN_MOTION_DOT":0.00010103,"MEAN_MOTION_DDOT":0},{"OBJECT_NAME":"SL-3 R/B","OBJECT_ID":"1983-075B","EPOCH":"2026-04-23T05:26:44.893536","MEAN_MOTION":15.39408773,"ECCENTRICITY":0.00230491,"INCLINATION":97.6135,"RA_OF_ASC_NODE":119.5279,"ARG_OF_PERICENTER":72.5929,"MEAN_ANOMALY":287.7833,"EPHEMERIS_TYPE":0,"CLASSIFICATION_TYPE":"U","NORAD_CAT_ID":14208,"ELEMENT_SET_NO":999,"REV_AT_EPOCH":33700,"BSTAR":0.00020991317,"MEAN_MOTION_DOT":8.199e-5,"MEAN_MOTION_DDOT":0},{"OBJECT_NAME":"COSMOS 1536","OBJECT_ID":"1984-013A","EPOCH":"2026-04-23T07:09:38.664288","MEAN_MOTION":15.24413887,"ECCENTRICITY":0.00160035,"INCLINATION":82.5445,"RA_OF_ASC_NODE":63.4771,"ARG_OF_PERICENTER":121.1129,"MEAN_ANOMALY":239.1681,"EPHEMERIS_TYPE":0,"CLASSIFICATION_TYPE":"U","NORAD_CAT_ID":14699,"ELEMENT_SET_NO":999,"REV_AT_EPOCH":27941,"BSTAR":0.00018933056,"MEAN_MOTION_DOT":4.69e-5,"MEAN_MOTION_DDOT":0},{"OBJECT_NAME":"SL-14 R/B","OBJECT_ID":"1984-027B","EPOCH":"2026-04-23T06:28:36.586560","MEAN_MOTION":14.86020278,"ECCENTRICITY":0.00179602,"INCLINATION":82.5444,"RA_OF_ASC_NODE":203.2091,"ARG_OF_PERICENTER":180.9393,"MEAN_ANOMALY":179.1793,"EPHEMERIS_TYPE":0,"CLASSIFICATION_TYPE":"U","NORAD_CAT_ID":14820,"ELEMENT_SET_NO":999,"REV_AT_EPOCH":25425,"BSTAR":3.3692336e-5,"MEAN_MOTION_DOT":3.2e-6,"MEAN_MOTION_DDOT":0},{"OBJECT_NAME":"SL-8 R/B","OBJECT_ID":"1985-006B","EPOCH":"2026-04-23T02:38:04.991136","MEAN_MOTION":14.37810458,"ECCENTRICITY":0.00171944,"INCLINATION":74.0458,"RA_OF_ASC_NODE":179.4139,"ARG_OF_PERICENTER":82.3465,"MEAN_ANOMALY":291.9627,"EPHEMERIS_TYPE":0,"CLASSIFICATION_TYPE":"U","NORAD_CAT_ID":15483,"ELEMENT_SET_NO":999,"REV_AT_EPOCH":16041,"BSTAR":5.7310864e-5,"MEAN_MOTION_DOT":1.47e-6,"MEAN_MOTION_DDOT":0},{"OBJECT_NAME":"SL-12 R/B(2)","OBJECT_ID":"1985-042D","EPOCH":"2026-04-23T04:04:22.491264","MEAN_MOTION":14.21994317,"ECCENTRICITY":0.0033344,"INCLINATION":71.1099,"RA_OF_ASC_NODE":353.7566,"ARG_OF_PERICENTER":54.424,"MEAN_ANOMALY":94.8089,"EPHEMERIS_TYPE":0,"CLASSIFICATION_TYPE":"U","NORAD_CAT_ID":15772,"ELEMENT_SET_NO":999,"REV_AT_EPOCH":12071,"BSTAR":6.0517905e-5,"MEAN_MOTION_DOT":8.7e-7,"MEAN_MOTION_DDOT":0},{"OBJECT_NAME":"SL-14 R/B","OBJECT_ID":"1985-069B","EPOCH":"2026-04-23T02:33:09.453024","MEAN_MOTION":14.86475023,"ECCENTRICITY":0.0019963,"INCLINATION":82.5278,"RA_OF_ASC_NODE":343.1773,"ARG_OF_PERICENTER":48.5193,"MEAN_ANOMALY":311.7733,"EPHEMERIS_TYPE":0,"CLASSIFICATION_TYPE":"U","NORAD_CAT_ID":15945,"ELEMENT_SET_NO":999,"REV_AT_EPOCH":17943,"BSTAR":3.0706901e-5,"MEAN_MOTION_DOT":2.97e-6,"MEAN_MOTION_DDOT":0},{"OBJECT_NAME":"SL-16 R/B","OBJECT_ID":"1985-097B","EPOCH":"2026-04-23T05:02:23.071200","MEAN_MOTION":14.16606869,"ECCENTRICITY":0.00082254,"INCLINATION":71.0043,"RA_OF_ASC_NODE":46.8213,"ARG_OF_PERICENTER":205.2559,"MEAN_ANOMALY":317.525,"EPHEMERIS_TYPE":0,"CLASSIFICATION_TYPE":"U","NORAD_CAT_ID":16182,"ELEMENT_SET_NO":999,"REV_AT_EPOCH":9353,"BSTAR":-5.6677561e-5,"MEAN_MOTION_DOT":-1.61e-6,"MEAN_MOTION_DDOT":0}]
